1 46529U 20061BF  21186.52790891  .00001009  00000-0  55166-4 0  9991
2 46529  97.4330 259.9127 0001414 255.9103 104.1973 15.16496510 41844
1 46529U 20061BF  21186.79184274  .00000983  00000-0  53851-4 0  9991
2 46529  97.4330 260.1713 0001425 253.9035 106.2041 15.16496943 41886
1 46529U 20061BF  21187.45167673  .00000957  00000-0  52480-4 0  9997
2 46529  97.4330 260.8180 0001453 248.8901 111.2177 15.16498261 41989
1 46529U 20061BF  21188.77134292  .00000906  00000-0  49904-4 0  9995
2 46529  97.4330 262.1113 0001529 239.7445 120.3636 15.16500997 42180
1 46529U 20061BF  21189.16724228  .00000927  00000-0  50963-4 0  9993
2 46529  97.4330 262.4993 0001557 237.4561 122.6522 15.16501992 42246
1 46529U 20061BF  21189.76109101  .00000884  00000-0  48733-4 0  9990
2 46529  97.4330 263.0812 0001593 233.5405 126.5681 15.16503053 42336
1 46529U 20061BF  21190.15699008  .00000820  00000-0  45450-4 0  9998
2 46529  97.4329 263.4692 0001620 231.1941 128.9148 15.16503487 42395
1 46529U 20061BF  21190.75083822  .00000793  00000-0  44051-4 0  9990
2 46529  97.4330 264.0512 0001659 227.4639 132.6455 15.16504508 42487
1 46529U 20061BF  21191.21271989  .00000809  00000-0  44902-4 0  9998
2 46529  97.4329 264.5039 0001695 224.9336 135.1760 15.16505442 42553
1 46529U 20061BF  21191.74058444  .00000778  00000-0  43285-4 0  9993
2 46529  97.4329 265.0212 0001738 221.7013 138.4087 15.16506208 42635
1 46529U 20061BF  21192.46639777  .00000696  00000-0  39101-4 0  9998
2 46529  97.4329 265.7325 0001797 217.5813 142.5295 15.16507004 42747
1 46529U 20061BF  21192.73032986  .00000780  00000-0  43416-4 0  9995
2 46529  97.4329 265.9912 0001821 216.1550 143.9560 15.16507877 42784
1 46529U 20061BF  21193.19221075  .00000786  00000-0  43695-4 0  9990
2 46529  97.4328 266.4438 0001866 213.8050 146.3065 15.16508643 42857
1 46529U 20061BF  21193.78605706  .00000778  00000-0  43317-4 0  9994
2 46529  97.4327 267.0257 0001925 210.7787 149.3334 15.16509648 42949
1 46529U 20061BF  21194.18195453  .00000740  00000-0  41346-4 0  9991
2 46529  97.4326 267.4137 0001968 208.9366 151.1758 15.16510083 43002
1 46529U 20061BF  21194.70981756  .00000710  00000-0  39792-4 0  9997
2 46529  97.4326 267.9310 0002022 206.3362 153.7768 15.16510797 43089
1 46529U 20061BF  21195.10571455  .00000684  00000-0  38485-4 0  9991
2 46529  97.4326 268.3190 0002063 204.7304 155.3831 15.16511321 43143
1 46529U 20061BF  21195.17169758  .00000640  00000-0  36208-4 0  9990
2 46529  97.4326 268.3836 0002071 204.4723 155.6412 15.16511127 43154
1 46529U 20061BF  21195.76554285  .00000591  00000-0  33671-4 0  9994
2 46529  97.4326 268.9656 0002129 201.7652 158.3491 15.16511834 43247
1 46529U 20061BF  21196.16143917  .00000647  00000-0  36554-4 0  9990
2 46529  97.4325 269.3535 0002163 200.2786 159.8362 15.16512860 43307
1 46529U 20061BF  21197.15118013  .00000628  00000-0  35608-4 0  9997
2 46529  97.4325 270.3235 0002251 196.1725 163.9437 15.16514243 43452
1 46529U 20061BF  21197.74502451  .00000594  00000-0  33868-4 0  9993
2 46529  97.4325 270.9054 0002310 193.6054 166.5117 15.16514839 43545
1 46529U 20061BF  21198.14092042  .00000628  00000-0  35578-4 0  9996
2 46529  97.4325 271.2934 0002345 192.1634 167.9543 15.16515566 43605
1 46529U 20061BF  21198.80074676  .00000681  00000-0  38306-4 0  9993
2 46529  97.4325 271.9400 0002407 189.4190 170.6999 15.16516747 43704
1 46529U 20061BF  21199.19664241  .00000685  00000-0  38529-4 0  9990
2 46529  97.4324 272.3280 0002455 188.0010 172.1184 15.16517304 43762
1 46529U 20061BF  21199.39459015  .00000694  00000-0  38957-4 0  9998
2 46529  97.4324 272.5220 0002477 187.1739 172.9459 15.16517626 43793
1 46529U 20061BF  21199.92245059  .00000700  00000-0  39278-4 0  9993
2 46529  97.4324 273.0393 0002531 185.3329 174.7878 15.16518425 43878
1 46529U 20061BF  21200.45031056  .00000765  00000-0  42603-4 0  9991
2 46529  97.4324 273.5567 0002589 183.4180 176.7036 15.16519633 43952
1 46529U 20061BF  21200.84620565  .00000715  00000-0  40071-4 0  9995
2 46529  97.4324 273.9446 0002631 182.2671 177.8551 15.16519934 44018
1 46529U 20061BF  21201.44004734  .00000792  00000-0  44025-4 0  9994
2 46529  97.4324 274.5266 0002692 180.3687 179.7545 15.16521410 44104
1 46529U 20061BF  21201.83594172  .00000770  00000-0  42887-4 0  9997
2 46529  97.4324 274.9146 0002732 179.0729 181.0509 15.16521978 44163
1 46529U 20061BF  21202.16585349  .00000765  00000-0  42599-4 0  9994
2 46529  97.4323 275.2379 0002765 178.1411 181.9833 15.16522544 44213
1 46529U 20061BF  21202.36380023  .00000868  00000-0  47888-4 0  9998
2 46529  97.4324 275.4319 0002784 177.4203 182.7045 15.16523524 44248
1 46529U 20061BF  21202.89165856  .00000873  00000-0  48181-4 0  9994
2 46529  97.4323 275.9492 0002830 175.5634 184.5624 15.16524517 44328
1 46529U 20061BF  21202.95764081  .00000875  00000-0  48243-4 0  9997
2 46529  97.4323 276.0138 0002839 175.3847 184.7413 15.16524644 44330
1 46529U 20061BF  21203.74942723  .00001183  00000-0  64051-4 0  9994
2 46529  97.4324 276.7897 0002911 172.8600 187.2675 15.16527825 44455
1 46529U 20061BF  21203.88139153  .00001197  00000-0  64763-4 0  9999
2 46529  97.4324 276.9191 0002927 172.3301 187.7977 15.16528151 44479
1 46529U 20061BF  21204.54121330  .00001200  00000-0  64907-4 0  9996
2 46529  97.4324 277.5657 0002991 170.3061 189.8230 15.16529307 44575
1 46529U 20061BF  21204.87112344  .00001269  00000-0  68487-4 0  9999
2 46529  97.4323 277.8889 0003022 169.3047 190.8251 15.16530432 44624
1 46529U 20061BF  21205.13505152  .00001289  00000-0  69470-4 0  9997
2 46529  97.4323 278.1476 0003047 168.5687 191.5616 15.16531135 44666
1 46529U 20061BF  21205.53094421  .00001166  00000-0  63193-4 0  9993
2 46529  97.4323 278.5355 0003093 167.3623 192.7688 15.16531139 44727
1 46529U 20061BF  21206.45469173  .00001166  00000-0  63195-4 0  9997
2 46529  97.4323 279.4407 0003184 164.7424 195.3906 15.16533158 44866
1 46529U 20061BF  21206.85058279  .00001201  00000-0  64992-4 0  9998
2 46529  97.4322 279.8287 0003224 163.7315 196.4022 15.16534364 44926
1 46529U 20061BF  21207.37843754  .00001161  00000-0  62914-4 0  9993
2 46529  97.4322 280.3460 0003278 162.3342 197.8006 15.16535412 45002
1 46529U 20061BF  21207.51040112  .00001140  00000-0  61853-4 0  9994
2 46529  97.4322 280.4753 0003294 161.9307 198.2044 15.16535638 45021
1 46529U 20061BF  21208.43414550  .00001105  00000-0  60057-4 0  9993
2 46529  97.4321 281.3805 0003379 159.4576 200.6793 15.16537769 45163
1 46529U 20061BF  21208.50012721  .00001059  00000-0  57663-4 0  9992
2 46529  97.4321 281.4451 0003386 159.2476 200.8895 15.16537684 45178
1 46529U 20061BF  21208.89601713  .00001048  00000-0  57132-4 0  9998
2 46529  97.4320 281.8331 0003415 158.1861 201.9518 15.16538624 45233
1 46529U 20061BF  21209.15994356  .00001051  00000-0  57254-4 0  9995
2 46529  97.4320 282.0917 0003436 157.5285 202.6099 15.16539327 45279
1 46529U 20061BF  21209.81975936  .00001018  00000-0  55581-4 0  9995
2 46529  97.4319 282.7383 0003494 155.6584 204.4815 15.16540733 45376
1 46529U 20061BF  21210.47957463  .00001044  00000-0  56913-4 0  9993
2 46529  97.4319 283.3848 0003549 153.8286 206.3127 15.16542356 45470
1 46529U 20061BF  21210.87546350  .00001057  00000-0  57581-4 0  9992
2 46529  97.4318 283.7728 0003585 152.6821 207.4601 15.16543292 45538
1 46529U 20061BF  21210.94144495  .00001056  00000-0  57493-4 0  9995
2 46529  97.4318 283.8374 0003590 152.5328 207.6095 15.16543423 45549
1 46529U 20061BF  21211.46929649  .00001048  00000-0  57129-4 0  9992
2 46529  97.4318 284.3547 0003642 151.1387 209.0048 15.16544510 45626
1 46529U 20061BF  21211.86518482  .00001060  00000-0  57707-4 0  9991
2 46529  97.4317 284.7426 0003676 150.0694 210.0750 15.16545428 45688
1 46529U 20061BF  21212.45901708  .00001025  00000-0  55900-4 0  9998
2 46529  97.4317 285.3245 0003730 148.5539 211.5917 15.16546483 45778
1 46529U 20061BF  21212.85490495  .00000984  00000-0  53809-4 0  9997
2 46529  97.4317 285.7124 0003766 147.5830 212.5635 15.16547109 45831
1 46529U 20061BF  21213.18481141  .00000849  00000-0  46899-4 0  9993
2 46529  97.4316 286.0357 0003793 146.8178 213.3293 15.16547089 45880
1 46529U 20061BF  21213.64668013  .00000901  00000-0  49582-4 0  9990
2 46529  97.4316 286.4883 0003835 145.7680 214.3801 15.16548367 45955
1 46529U 20061BF  21214.43845452  .00000805  00000-0  44637-4 0  9991
2 46529  97.4316 287.2642 0003893 143.8562 216.2935 15.16549503 46075
1 46529U 20061BF  21214.63639799  .00000798  00000-0  44255-4 0  9995
2 46529  97.4316 287.4581 0003909 143.4464 216.7036 15.16549904 46100
1 46529U 20061BF  21214.96630342  .00000826  00000-0  45701-4 0  9995
2 46529  97.4316 287.7814 0003928 142.5927 217.5580 15.16550787 46156
1 46529U 20061BF  21215.16424614  .00000960  00000-0  52599-4 0  9993
2 46529  97.4316 287.9753 0003937 142.0817 218.0694 15.16552127 46188
1 46529U 20061BF  21216.15396237  .00000767  00000-0  42700-4 0  9990
2 46529  97.4315 288.9451 0004010 139.5373 220.6159 15.16552939 46337
1 46529U 20061BF  21216.74779107  .00000865  00000-0  47691-4 0  9999
2 46529  97.4316 289.5270 0004054 138.0849 222.0695 15.16554626 46420
1 46529U 20061BF  21217.47358189  .00000800  00000-0  44357-4 0  9998
2 46529  97.4316 290.2382 0004109 136.2670 223.8890 15.16555407 46532
1 46529U 20061BF  21218.19937195  .00000789  00000-0  43794-4 0  9998
2 46529  97.4315 290.9493 0004157 134.4562 225.7011 15.16556531 46641
1 46529U 20061BF  21218.46329540  .00000779  00000-0  43273-4 0  9998
2 46529  97.4316 291.2080 0004181 133.9042 226.2537 15.16556922 46689
1 46529U 20061BF  21218.66123791  .00000789  00000-0  43794-4 0  9999
2 46529  97.4315 291.4019 0004197 133.4502 226.7081 15.16557346 46719
1 46529U 20061BF  21219.18908356  .00000721  00000-0  40341-4 0  9996
2 46529  97.4313 291.9190 0004236 131.7914 228.3681 15.16559196 46791
1 46529U 20061BF  21219.45300604  .00000894  00000-0  49208-4 0  9990
2 46529  97.4312 292.1777 0004260 131.3178 228.8422 15.16560778 46830
